NORAD_CAT_ID,OBJECT_NAME,OBJECT_TYPE,EPOCH,MEAN_MOTION,ECCENTRICITY,INCLINATION,RA_OF_ASC_NODE,ARG_OF_PERICENTER,MEAN_ANOMALY,BSTAR,MEAN_MOTION_DOT,MEAN_MOTION_DDOT,TLE_LINE0,TLE_LINE1,TLE_LINE2,SEMIMAJOR_AXIS,PERIOD,APOGEE,PERIGEE,DECAYED
54184.0,STARLINK-5162,PAYLOAD,2023-08-05 22:11:24,15.08850772,0.0001082,53.216,293.9329,108.8433,251.2677,0.00039193,5.957e-05,0.0,0 STARLINK-5162,1 54184U 22141AD  23217.92458810  .00005957  00000-0  39193-3 0  9998,2 54184  53.2160 293.9329 0001082 108.8433 251.2677 15.08850772 43163,6917.847,95.437,540.461,538.964,0.0
54184.0,STARLINK-5162,PAYLOAD,2023-08-06 10:54:29,15.08841331,0.0001278,53.2159,291.5562,100.1137,260.0,0.00010186,1.334e-05,0.0,0 STARLINK-5162,1 54184U 22141AD  23218.45451143  .00001334  00000-0  10186-3 0  9995,2 54184  53.2159 291.5562 0001278 100.1137 260.0000 15.08841331 43245,6917.876,95.437,540.625,538.857,0.0
54184.0,STARLINK-5162,PAYLOAD,2023-08-06 22:02:12,15.08832402,0.0001171,53.2149,289.4734,94.285,265.8276,0.00029983,4.486e-05,0.0,0 STARLINK-5162,1 54184U 22141AD  23218.91819602  .00004486  00000-0  29983-3 0  9990,2 54184  53.2149 289.4734 0001171  94.2850 265.8276 15.08832402 43313,6917.904,95.438,540.579,538.959,0.0
54184.0,STARLINK-5162,PAYLOAD,2023-08-08 10:36:04,15.08851204,0.0001158,53.2147,282.6335,91.153,268.9595,0.00052766,8.122e-05,0.0,0 STARLINK-5162,1 54184U 22141AD  23220.44171776  .00008122  00000-0  52766-3 0  9990,2 54184  53.2147 282.6335 0001158  91.1530 268.9595 15.08851204 43543,6917.846,95.437,540.512,538.91,0.0
54184.0,STARLINK-5162,PAYLOAD,2023-08-09 10:26:52,15.08837157,0.000112,53.2154,278.1728,81.5048,278.6071,0.00014368,1.999e-05,0.0,0 STARLINK-5162,1 54184U 22141AD  23221.43532562  .00001999  00000-0  14368-3 0  9995,2 54184  53.2154 278.1728 0001120  81.5048 278.6071 15.08837157 43697,6917.889,95.438,540.529,538.979,0.0
54184.0,STARLINK-5162,PAYLOAD,2023-08-10 03:56:05,15.08852842,9.96e-05,53.2155,274.9023,74.2026,285.9076,0.00032195,4.842e-05,0.0,0 STARLINK-5162,1 54184U 22141AD  23222.16395639  .00004842  00000-0  32195-3 0  9996,2 54184  53.2155 274.9023 0000996  74.2026 285.9076 15.08852842 43802,6917.841,95.437,540.395,539.017,0.0
54184.0,STARLINK-5162,PAYLOAD,2023-08-10 13:28:24,15.0886993,0.0001209,53.2155,273.1177,75.5016,284.611,0.00069314,0.0001077,0.0,0 STARLINK-5162,1 54184U 22141AD  23222.56138932  .00010770  00000-0  69314-3 0  9991,2 54184  53.2155 273.1177 0001209  75.5016 284.6110 15.08869930 43861,6917.789,95.436,540.49,538.818,0.0
54184.0,STARLINK-5162,PAYLOAD,2023-08-11 10:08:25,15.08837873,0.0001194,53.2158,269.2524,87.0336,273.0792,-4.8447e-06,-3.65e-06,0.0,0 STARLINK-5162,1 54184U 22141AD  23223.42251601 -.00000365  00000-0 -48447-5 0  9993,2 54184  53.2158 269.2524 0001194  87.0336 273.0792 15.08837873 43995,6917.887,95.438,540.578,538.926,0.0
54184.0,STARLINK-5162,PAYLOAD,2023-08-12 13:09:59,15.08842443,0.0001244,53.215,264.1968,86.0098,274.1036,0.00029003,4.331e-05,0.0,0 STARLINK-5162,1 54184U 22141AD  23224.54860066  .00004331  00000-0  29003-3 0  9998,2 54184  53.2150 264.1968 0001244  86.0098 274.1036 15.08842443 44165,6917.873,95.437,540.599,538.877,0.0
54184.0,STARLINK-5162,PAYLOAD,2023-08-13 01:53:04,15.08835825,0.0001301,53.2144,261.8172,92.9596,267.1545,0.00016537,2.345e-05,0.0,0 STARLINK-5162,1 54184U 22141AD  23225.07852498  .00002345  00000-0  16537-3 0  9998,2 54184  53.2144 261.8172 0001301  92.9596 267.1545 15.08835825 44244,6917.893,95.438,540.658,538.858,0.0
54184.0,STARLINK-5162,PAYLOAD,2023-08-14 09:40:47,15.08844346,0.0001261,53.214,255.8699,89.4899,270.6237,0.00019674,2.845e-05,0.0,0 STARLINK-5162,1 54184U 22141AD  23226.40332413  .00002845  00000-0  19674-3 0  9996,2 54184  53.2140 255.8699 0001261  89.4899 270.6237 15.08844346 44446,6917.867,95.437,540.604,538.86,0.0
54184.0,STARLINK-5162,PAYLOAD,2023-08-15 01:34:38,15.08839456,0.0001322,53.2144,252.8961,85.7648,274.3495,0.0001193,1.611e-05,0.0,0 STARLINK-5162,1 54184U 22141AD  23227.06572792  .00001611  00000-0  11930-3 0  9992,2 54184  53.2144 252.8961 0001322  85.7648 274.3495 15.08839456 44542,6917.882,95.438,540.662,538.833,0.0
54184.0,STARLINK-5162,PAYLOAD,2023-08-16 07:46:58,15.08844769,0.0001454,53.2153,247.2471,80.1814,279.9342,0.00012897,1.765e-05,0.0,0 STARLINK-5162,1 54184U 22141AD  23228.32428645  .00001765  00000-0  12897-3 0  9992,2 54184  53.2153 247.2471 0001454  80.1814 279.9342 15.08844769 44732,6917.866,95.437,540.737,538.725,0.0
54184.0,STARLINK-5162,PAYLOAD,2023-08-17 10:48:31,15.08844261,0.0001362,53.2162,242.1903,87.8476,272.2672,9.2892e-05,1.191e-05,0.0,0 STARLINK-5162,1 54184U 22141AD  23229.45036417  .00001191  00000-0  92892-4 0  9996,2 54184  53.2162 242.1903 0001362  87.8476 272.2672 15.08844261 44900,6917.867,95.437,540.675,538.79,0.0
54184.0,STARLINK-5162,PAYLOAD,2023-08-18 01:07:00,15.08836972,0.0001359,53.216,239.5136,93.2619,266.8529,-3.4679e-06,-3.43e-06,0.0,0 STARLINK-5162,1 54184U 22141AD  23230.04653079 -.00000343  00000-0 -34679-5 0  9992,2 54184  53.2160 239.5136 0001359  93.2619 266.8529 15.08836972 44991,6917.89,95.438,540.695,538.815,0.0
54184.0,STARLINK-5162,PAYLOAD,2023-08-19 07:19:19,15.08838283,0.0001418,53.2166,233.8665,96.3868,263.7286,3.6249e-05,2.89e-06,0.0,0 STARLINK-5162,1 54184U 22141AD  23231.30509017  .00000289  00000-0  36249-4 0  9995,2 54184  53.2166 233.8665 0001418  96.3868 263.7286 15.08838283 45182,6917.886,95.438,540.732,538.77,0.0
54184.0,STARLINK-5162,PAYLOAD,2023-08-20 05:34:44,15.0883501,0.0001388,53.2163,229.7025,95.7719,264.3431,6.6813e-05,7.75e-06,0.0,0 STARLINK-5162,1 54184U 22141AD  23232.23245423  .00000775  00000-0  66813-4 0  9996,2 54184  53.2163 229.7025 0001388  95.7719 264.3431 15.08835010 45327,6917.896,95.438,540.721,538.8,0.0
54184.0,STARLINK-5162,PAYLOAD,2023-08-21 07:00:53,15.08843888,0.0001397,53.2162,224.9442,96.3576,263.7575,9.8945e-05,1.287e-05,0.0,0 STARLINK-5162,1 54184U 22141AD  23233.29228949  .00001287  00000-0  98945-4 0  9997,2 54184  53.2162 224.9442 0001397  96.3576 263.7575 15.08843888 45485,6917.869,95.437,540.7,538.767,0.0
54184.0,STARLINK-5162,PAYLOAD,2023-08-22 00:30:08,15.08838197,0.0001389,53.2161,221.6725,93.0991,267.016,4.2687e-05,3.91e-06,0.0,0 STARLINK-5162,1 54184U 22141AD  23234.02093542  .00000391  00000-0  42687-4 0  9995,2 54184  53.2161 221.6725 0001389  93.0991 267.0160 15.08838197 45594,6917.886,95.438,540.712,538.79,0.0
54184.0,STARLINK-5162,PAYLOAD,2023-08-23 03:31:41,15.0884362,0.0001439,53.2162,216.6171,88.3257,271.79,2.0269e-05,3.5e-07,0.0,0 STARLINK-5162,1 54184U 22141AD  23235.14701326  .00000035  00000-0  20269-4 0  9992,2 54184  53.2162 216.6171 0001439  88.3257 271.7900 15.08843620 45762,6917.869,95.437,540.73,538.739,0.0
54184.0,STARLINK-5162,PAYLOAD,2023-08-24 08:08:38,15.08838121,0.0001411,53.2159,211.2641,86.4251,273.6902,3.7275e-05,3.05e-06,0.0,0 STARLINK-5162,1 54184U 22141AD  23236.33933717  .00000305  00000-0  37275-4 0  9990,2 54184  53.2159 211.2641 0001411  86.4251 273.6902 15.08838121 45712,6917.886,95.438,540.727,538.775,0.0
54184.0,STARLINK-5162,PAYLOAD,2023-08-25 04:48:39,15.08841732,0.0001422,53.216,207.3981,89.4423,270.6732,9.9449e-05,1.295e-05,0.0,0 STARLINK-5162,1 54184U 22141AD  23237.20045309  .00001295  00000-0  99449-4 0  9998,2 54184  53.2160 207.3981 0001422  89.4423 270.6732 15.08841732 46073,6917.875,95.437,540.724,538.756,0.0
54184.0,STARLINK-5162,PAYLOAD,2023-08-25 20:42:30,15.08843431,0.0001419,53.216,204.4244,89.0282,271.0873,0.00010594,1.399e-05,0.0,0 STARLINK-5162,1 54184U 22141AD  23237.86285135  .00001399  00000-0  10594-3 0  9991,2 54184  53.2160 204.4244 0001419  89.0282 271.0873 15.08843431 45942,6917.87,95.437,540.717,538.753,0.0
54184.0,STARLINK-5162,PAYLOAD,2023-08-25 22:17:54,15.08837018,0.000147,53.2158,204.1278,83.7479,276.368,5.719e-05,6.22e-06,0.0,0 STARLINK-5162,1 54184U 22141AD  23237.92909868  .00000622  00000-0  57190-4 0  9996,2 54184  53.2158 204.1278 0001470  83.7479 276.3680 15.08837018 46184,6917.89,95.438,540.771,538.738,0.0
54184.0,STARLINK-5162,PAYLOAD,2023-08-26 07:50:12,15.08837643,0.0001463,53.2162,202.3435,91.3994,268.7166,5.2378e-05,5.46e-06,0.0,0 STARLINK-5162,1 54184U 22141AD  23238.32653875  .00000546  00000-0  52378-4 0  9993,2 54184  53.2162 202.3435 0001463  91.3994 268.7166 15.08837643 46013,6917.888,95.438,540.765,538.741,0.0
54184.0,STARLINK-5162,PAYLOAD,2023-08-27 01:19:27,15.08837026,0.0001597,53.2169,199.0723,103.7169,256.4001,1.6091e-05,-3.2e-07,0.0,0 STARLINK-5162,1 54184U 22141AD  23239.05518078 -.00000032  00000-0  16091-4 0  9992,2 54184  53.2169 199.0723 0001597 103.7169 256.4001 15.08837026 46356,6917.889,95.438,540.859,538.65,0.0
54184.0,STARLINK-5162,PAYLOAD,2023-08-27 06:05:36,15.08840776,0.0001526,53.2169,198.1803,94.68,265.4367,4.1988e-05,3.8e-06,0.0,0 STARLINK-5162,1 54184U 22141AD  23239.25389828  .00000380  00000-0  41988-4 0  9991,2 54184  53.2169 198.1803 0001526  94.6800 265.4367 15.08840776 46156,6917.878,95.438,540.799,538.687,0.0
54184.0,STARLINK-5162,PAYLOAD,2023-08-28 07:31:47,15.0884111,0.0001477,53.2165,193.4233,93.3955,266.7206,4.4849e-05,4.26e-06,0.0,0 STARLINK-5162,1 54184U 22141AD  23240.31374002  .00000426  00000-0  44849-4 0  9998,2 54184  53.2165 193.4233 0001477  93.3955 266.7206 15.08841110 46541,6917.877,95.437,540.764,538.72,0.0
54184.0,STARLINK-5162,PAYLOAD,2023-08-28 13:53:19,15.0884871,0.0001474,53.2165,192.2341,84.3911,275.7249,-8.8855e-05,-1.702e-05,0.0,0 STARLINK-5162,1 54184U 22141AD  23240.57869956 -.00001702  00000-0 -88855-4 0  9998,2 54184  53.2165 192.2341 0001474  84.3911 275.7249 15.08848710 46356,6917.854,95.437,540.738,538.699,0.0
54184.0,STARLINK-5162,PAYLOAD,2023-08-29 01:01:02,15.08836702,0.0001398,53.2166,190.1526,84.6015,275.5137,2.721e-05,1.45e-06,0.0,0 STARLINK-5162,1 54184U 22141AD  23241.04238516  .00000145  00000-0  27210-4 0  9999,2 54184  53.2166 190.1526 0001398  84.6015 275.5137 15.08836702 46657,6917.89,95.438,540.723,538.788,0.0
